IRIDIUM 126             
1 42809U 17039G   25231.74865377  .00000202  00000+0  65210-4 0  9994
2 42809  86.3974 119.6827 0001941  83.5826 276.5590 14.34218757426742
IRIDIUM 124             
1 42810U 17039H   25231.94856456  .00000121  00000+0  29883-4 0  9992
2 42810  86.4444  56.2890 0002308  92.8942 267.2523 14.43279709431667
IRIDIUM 128             
1 42811U 17039J   25231.80915308 -.00000009  00000+0 -10262-4 0  9998
2 42811  86.4030 151.1449 0002331  90.3921 269.7542 14.34217397426780
IRIDIUM 121             
1 42812U 17039K   25231.76767295  .00000051  00000+0  10997-4 0  9994
2 42812  86.3975 119.7003 0002274  85.7756 274.3699 14.34217047426624
IRIDIUM 133             
1 42955U 17061A   25231.84086417  .00000077  00000+0  20481-4 0  9993
2 42955  86.4031 151.2420 0002226  85.7078 274.4372 14.34218049411585
IRIDIUM 100             
1 42956U 17061B   25231.83452186  .00000018  00000+0 -77073-6 0  9990
2 42956  86.4030 151.1703 0002031  89.0474 271.0955 14.34217657411583
IRIDIUM 122             
1 42957U 17061C   25231.87257775  .00000040  00000+0  70468-5 0  9996
2 42957  86.4030 151.1540 0002097  85.0727 275.0708 14.34217647411592
IRIDIUM 129             
1 42958U 17061D   25231.82817969 -.00000015  00000+0 -12341-4 0  9998
2 42958  86.4030 151.2359 0002020  71.9067 288.2348 14.34217356411604
